NORAD_CAT_ID,OBJECT_NAME,OBJECT_TYPE,EPOCH,MEAN_MOTION,ECCENTRICITY,INCLINATION,RA_OF_ASC_NODE,ARG_OF_PERICENTER,MEAN_ANOMALY,BSTAR,MEAN_MOTION_DOT,MEAN_MOTION_DDOT,TLE_LINE0,TLE_LINE1,TLE_LINE2,SEMIMAJOR_AXIS,PERIOD,APOGEE,PERIGEE,DECAYED
49741.0,STARLINK-3244,PAYLOAD,2022-09-22 19:43:33,15.08835845,0.0001518,53.2169,62.8369,56.514,303.5997,7.9197e-05,9.73e-06,0.0,0 STARLINK-3244,1 49741U 21115T   22265.82191389  .00000973  00000-0  79197-4 0  9999,2 49741  53.2169  62.8369 0001518  56.5140 303.5997 15.08835845 45847,6917.893,95.438,540.808,538.7080000000002,0.0
49741.0,STARLINK-3244,PAYLOAD,2022-09-23 19:34:18,15.08891092,0.0001353,53.2173,58.3773,52.9248,307.1867,-0.00052083,-8.579e-05,0.0,0 STARLINK-3244,1 49741U 21115T   22266.81549345 -.00008579  00000-0 -52083-3 0  9994,2 49741  53.2173  58.3773 0001353  52.9248 307.1867 15.08891092 45995,6917.724,95.434,540.525,538.653,0.0
49741.0,STARLINK-3244,PAYLOAD,2022-09-24 03:31:16,15.08838131,0.0001706,53.217,56.8904,55.3826,304.7327,0.00013738,1.899e-05,0.0,0 STARLINK-3244,1 49741U 21115T   22267.14671618  .00001899  00000-0  13738-3 0  9990,2 49741  53.2170  56.8904 0001706  55.3826 304.7327 15.08838131 46048,6917.886,95.438,540.931,538.571,0.0
49741.0,STARLINK-3244,PAYLOAD,2022-09-24 16:14:20,15.08852239,0.000162,53.2167,54.5106,56.2276,303.8871,0.00018182,2.608e-05,0.0,0 STARLINK-3244,1 49741U 21115T   22267.67662606  .00002608  00000-0  18182-3 0  9992,2 49741  53.2167  54.5106 0001620  56.2276 303.8871 15.08852239 45012,6917.843000000003,95.437,540.8290000000002,538.587,0.0
49741.0,STARLINK-3244,PAYLOAD,2022-09-25 03:22:02,15.0885283,0.0001671,53.2164,52.4293,53.3294,306.7851,0.00021016,3.059e-05,0.0,0 STARLINK-3244,1 49741U 21115T   22268.14030579  .00003059  00000-0  21016-3 0  9994,2 49741  53.2164  52.4293 0001671  53.3294 306.7851 15.08852830 45081,6917.840999999999,95.437,540.862,538.55,0.0
49741.0,STARLINK-3244,PAYLOAD,2022-09-25 16:05:08,15.08842025,0.0001615,53.2176,50.0503,54.2852,305.829,-6.517e-05,-1.325e-05,0.0,0 STARLINK-3244,1 49741U 21115T   22268.67023268 -.00001325  00000-0 -65170-4 0  9995,2 49741  53.2176  50.0503 0001615  54.2852 305.8290 15.08842025 46274,6917.874,95.437,540.856,538.622,0.0
49741.0,STARLINK-3244,PAYLOAD,2022-09-26 12:45:09,15.08835348,0.0001509,53.217,46.1836,59.8808,300.2334,-5.1719e-05,-1.111e-05,0.0,0 STARLINK-3244,1 49741U 21115T   22269.53135612 -.00001111  00000-0 -51719-4 0  9995,2 49741  53.2170  46.1836 0001509  59.8808 300.2334 15.08835348 45296,6917.895,95.438,540.804,538.716,0.0
49741.0,STARLINK-3244,PAYLOAD,2022-09-26 19:06:41,15.08836675,0.0001594,53.2173,44.9956,49.9165,310.1966,-0.00010086,-1.893e-05,0.0,0 STARLINK-3244,1 49741U 21115T   22269.79631736 -.00001893  00000-0 -10086-3 0  9999,2 49741  53.2173  44.9956 0001594  49.9165 310.1966 15.08836675 46441,6917.891,95.438,540.8580000000002,538.653,0.0
49741.0,STARLINK-3244,PAYLOAD,2022-09-26 20:42:04,15.08837443,0.0001587,53.2172,44.698,48.9314,311.1815,-9.701e-05,-1.831e-05,0.0,0 STARLINK-3244,1 49741U 21115T   22269.86255682 -.00001831  00000-0 -97010-4 0  9994,2 49741  53.2172  44.6980 0001587  48.9314 311.1815 15.08837443 45347,6917.888000000001,95.438,540.851,538.655,0.0
49741.0,STARLINK-3244,PAYLOAD,2022-09-27 12:35:55,15.08836954,0.0001553,53.2172,41.7243,48.7549,311.3577,8.843e-05,1.12e-05,0.0,0 STARLINK-3244,1 49741U 21115T   22270.52495201  .00001120  00000-0  88430-4 0  9997,2 49741  53.2172  41.7243 0001553  48.7549 311.3577 15.08836954 46555,6917.89,95.438,540.8290000000002,538.68,0.0
49741.0,STARLINK-3244,PAYLOAD,2022-09-27 20:32:50,15.08848865,0.0001615,53.2173,40.2374,49.8866,310.2267,0.00017674,2.527e-05,0.0,0 STARLINK-3244,1 49741U 21115T   22270.85614188  .00002527  00000-0  17674-3 0  9993,2 49741  53.2173  40.2374 0001615  49.8866 310.2267 15.08848865 45498,6917.853,95.437,540.836,538.601,0.0
49741.0,STARLINK-3244,PAYLOAD,2022-09-28 12:26:41,15.08847083,0.0001788,53.2176,37.2616,80.7721,279.3473,0.000186,2.674e-05,0.0,0 STARLINK-3244,1 49741U 21115T   22271.51854095  .00002674  00000-0  18600-3 0  9993,2 49741  53.2176  37.2616 0001788  80.7721 279.3473 15.08847083 45597,6917.859,95.437,540.961,538.487,0.0
49741.0,STARLINK-3244,PAYLOAD,2022-09-28 18:48:14,15.08844616,0.000182,53.2176,36.076,34.4513,325.6597,0.00019488,2.815e-05,0.0,0 STARLINK-3244,1 49741U 21115T   22271.78350227  .00002815  00000-0  19488-3 0  9992,2 49741  53.2176  36.0760 0001820  34.4513 325.6597 15.08844616 45632,6917.866,95.437,540.99,538.472,0.0
49741.0,STARLINK-3244,PAYLOAD,2022-09-29 12:17:31,15.08828832,0.0001595,53.2155,32.8013,65.3749,294.7409,-0.00012483,-2.274e-05,0.0,0 STARLINK-3244,1 49741U 21115T   22272.51216522 -.00002274  00000-0 -12483-3 0  9992,2 49741  53.2155  32.8013 0001595  65.3749 294.7409 15.08828832 46852,6917.915,95.438,540.883,538.6759999999998,0.0
49741.0,STARLINK-3244,PAYLOAD,2022-09-30 01:00:36,15.08833762,0.0001786999999999,53.2172,30.4248,50.1759,309.939,-8.4375e-05,-1.63e-05,0.0,0 STARLINK-3244,1 49741U 21115T   22273.04208352 -.00001630  00000-0 -84375-4 0  9998,2 49741  53.2172  30.4248 0001787  50.1759 309.9390 15.08833762 46936,6917.899,95.438,541.001,538.528,0.0
49741.0,STARLINK-3244,PAYLOAD,2022-09-30 10:32:54,15.08846235,0.0001838,53.2167,28.6401,50.7474,309.3681,-1.91e-05,-5.92e-06,0.0,0 STARLINK-3244,1 49741U 21115T   22273.43951483 -.00000592  00000-0 -19100-4 0  9991,2 49741  53.2167  28.6401 0001838  50.7474 309.3681 15.08846235 46999,6917.861,95.437,540.998,538.455,0.0
49741.0,STARLINK-3244,PAYLOAD,2022-09-30 16:54:26,15.08851433,0.0001786999999999,53.2172,27.4507,51.405,308.7102,5.2812e-05,5.53e-06,0.0,0 STARLINK-3244,1 49741U 21115T   22273.70446909  .00000553  00000-0  52812-4 0  9995,2 49741  53.2172  27.4507 0001787  51.4050 308.7102 15.08851433 45929,6917.845,95.437,540.947,538.474,0.0
49741.0,STARLINK-3244,PAYLOAD,2022-10-01 00:51:21,15.08856268,0.0001821,53.2173,25.9636,46.5464,313.5679,0.00015277,2.145e-05,0.0,0 STARLINK-3244,1 49741U 21115T   22274.03566236  .00002145  00000-0  15277-3 0  9990,2 49741  53.2173  25.9636 0001821  46.5464 313.5679 15.08856268 47082,6917.831,95.437,540.955,538.436,0.0
49741.0,STARLINK-3244,PAYLOAD,2022-10-01 13:34:26,15.08844977,0.0001655,53.2175,23.5841,49.7484,310.3652,0.00030427,4.558e-05,0.0,0 STARLINK-3244,1 49741U 21115T   22274.56558669  .00004558  00000-0  30427-3 0  9993,2 49741  53.2175  23.5841 0001655  49.7484 310.3652 15.08844977 46054,6917.865,95.437,540.875,538.585,0.0
49741.0,STARLINK-3244,PAYLOAD,2022-10-01 18:20:36,15.08840378,0.0001839,53.2176,22.6929,47.8401,312.2747,0.00026402,3.916e-05,0.0,0 STARLINK-3244,1 49741U 21115T   22274.76431335  .00003916  00000-0  26402-3 0  9990,2 49741  53.2176  22.6929 0001839  47.8401 312.2747 15.08840378 46084,6917.879,95.438,541.016,538.472,0.0
49741.0,STARLINK-3244,PAYLOAD,2022-10-02 13:25:15,15.08829613,0.0001841999999999,53.2169,19.1247,47.9684,312.1465,-7.6953e-05,-1.512e-05,0.0,0 STARLINK-3244,1 49741U 21115T   22275.55920264 -.00001512  00000-0 -76953-4 0  9991,2 49741  53.2169  19.1247 0001842  47.9684 312.1465 15.08829613 47310,6917.9119999999975,95.438,541.0509999999998,538.503,0.0
49741.0,STARLINK-3244,PAYLOAD,2022-10-02 16:36:01,15.08831678,0.0001899,53.2168,18.5296,50.1501,309.9658,-0.00015637,-2.775e-05,0.0,0 STARLINK-3244,1 49741U 21115T   22275.69167935 -.00002775  00000-0 -15637-3 0  9997,2 49741  53.2168  18.5296 0001899  50.1501 309.9658 15.08831678 46223,6917.906,95.438,541.085,538.457,0.0
49741.0,STARLINK-3244,PAYLOAD,2022-10-03 11:40:38,15.08860929,0.0001986,53.2166,14.9618,47.13,312.9858,0.0012043,0.00018941,0.0,0 STARLINK-3244,1 49741U 21115T   22276.48655663  .00018941  00000-0  12043-2 0  9992,2 49741  53.2166  14.9618 0001986  47.1300 312.9858 15.08860929 46349,6917.816,95.436,541.055,538.308,0.0
49741.0,STARLINK-3244,PAYLOAD,2022-10-03 18:02:10,15.08869965,0.0002201,53.2167,13.7719,45.8133,314.3040000000001,0.0013969,0.00022032,0.0,0 STARLINK-3244,1 49741U 21115T   22276.75151517  .00022032  00000-0  13969-2 0  9995,2 49741  53.2167  13.7719 0002201  45.8133 314.3040 15.08869965 46381,6917.7890000000025,95.436,541.1759999999998,538.131,0.0
49741.0,STARLINK-3244,PAYLOAD,2022-10-04 13:06:47,15.08863812,0.0001891,53.2172,10.2037,43.2193,316.8947,0.00055424,8.549e-05,0.0,0 STARLINK-3244,1 49741U 21115T   22277.54638624  .00008549  00000-0  55424-3 0  9992,2 49741  53.2172  10.2037 0001891  43.2193 316.8947 15.08863812 46506,6917.808000000001,95.436,540.981,538.364,0.0
49741.0,STARLINK-3244,PAYLOAD,2022-10-05 06:36:02,15.08851279,0.0002029,53.2172,6.9327,45.5343,314.5815,0.00062474,9.672e-05,0.0,0 STARLINK-3244,1 49741U 21115T   22278.27502921  .00009672  00000-0  62474-3 0  9994,2 49741  53.2172   6.9327 0002029  45.5343 314.5815 15.08851279 47724,6917.846,95.437,541.115,538.307,0.0
49741.0,STARLINK-3244,PAYLOAD,2022-10-05 12:57:35,15.08830576,0.0001929,53.2175,5.7439,45.8726,314.2425,4.4172e-05,4.15e-06,0.0,0 STARLINK-3244,1 49741U 21115T   22278.53999179  .00000415  00000-0  44172-4 0  9990,2 49741  53.2175   5.7439 0001929  45.8726 314.2425 15.08830576 46656,6917.909000000002,95.438,541.109,538.44,0.0
49741.0,STARLINK-3244,PAYLOAD,2022-10-06 11:12:59,15.08845206,0.0001982,53.2175,1.5813,45.1611,314.9542,0.00097168,0.00015212,0.0,0 STARLINK-3244,1 49741U 21115T   22279.46735953  .00015212  00000-0  97168-3 0  9994,2 49741  53.2175   1.5813 0001982  45.1611 314.9542 15.08845206 46799,6917.864000000001,95.437,541.101,538.3580000000002,0.0
49741.0,STARLINK-3244,PAYLOAD,2022-10-06 15:59:09,15.08849135,0.0002025,53.2167,0.6882,40.25,319.8642,0.00089114,0.00013927,0.0,0 STARLINK-3244,1 49741U 21115T   22279.66607876  .00013927  00000-0  89114-3 0  9991,2 49741  53.2167   0.6882 0002025  40.2500 319.8642 15.08849135 46822,6917.852,95.437,541.118,538.317,0.0
